address_id,address,matched,address_id2,address_matched,suburb,postcode,latitude,longitude,similarity
1,501 COWPASTURE RD HOXTON PARK 2171 NSW,1,14085450.0,501 COWPASTURE RD LEN WATERS ESTATE NSW 2171,LEN WATERS ESTATE,2171.0,-33.91847229003910,150.8538055419920,0.6056338028169010
2,SHOP 1 57 OLD NORTHERN RD ALBANY CREEK 4035 QLD,1,11643214.0,UNIT 1 57 OLD NORTHERN RD ALBANY CREEK QLD 4035,ALBANY CREEK,4035.0,-27.360733032226600,152.97108459472700,0.821917808219178
3,175 KING STREET NEWTOWN 2042 NSW,1,7703358.0,175 KING ST NEWTOWN NSW 2042,NEWTOWN,2042.0,-33.894073486328100,151.18252563476600,0.8541666666666670
4,1A BRONTE RD BONDI JUNCTION SYDNEY 2022 NSW,1,8768200.0,1A BRONTE RD BONDI JUNCTION NSW 2022,BONDI JUNCTION,2022.0,-33.89244842529300,151.24957275390600,0.8305084745762710
5,BAYSWATER ROAD CNR PENNYS LANE KINGS CROSS 2011 NSW,0.5,4060130.0,BAYSWATER 2 14 KINGS CROSS RD POTTS POINT NSW 2011,POTTS POINT,2011.0,-33.87553787231450,151.22283935546900,0.6282051282051280
6,SHOP 403 LEVEL 4 264 278 GEORGE STREET SYDNEY 2000 NSW,1,6260374.0,AUSTRALIA SQUARE SHOP 403 264 278 GEORGE ST SYDNEY NSW 2000,SYDNEY,2000.0,-33.86493682861330,151.2079620361330,0.5523809523809520
7,SHOP 14 LEVEL 6 MLC CENTRE FOOD COURT MARTIN PLACE CASTLEREAGH STREET SYDNEY 2000 NSW,0.5,12286730.0,MLC CENTRE SUITE 6 LEVEL 14 19 29 MARTIN PL SYDNEY NSW 2000,SYDNEY,2000.0,-33.86874008178710,151.20933532714800,0.6190476190476190
8,SHOP 5008 LEVEL 5 WESTFIELD SYDNEY FOOD COURT 188 PITT STREET SYDNEY 2000 NSW,1,6949541.0,LEVEL 5 188 PITT ST SYDNEY NSW 2000,SYDNEY,2000.0,-33.87010955810550,151.2089080810550,0.42469879518072300
9,SHOP 2 77 WILLOUGHBY ROAD CRN HOLTERMAN STREET CROWS NEST 2065 NSW,1,2334576.0,SUITE 2 77 WILLOUGHBY RD CROWS NEST NSW 2065,CROWS NEST,2065.0,-33.824623107910200,151.20118713378900,0.6551724137931030
10,SHOP 6013 LEVEL 6 WESTFIELD BONDI JUNCTION 500 OXFORD STREET BONDI JUNCTION 2022 NSW,1,13075061.0,SUITE 6013 500 OXFORD ST BONDI JUNCTION NSW 2022,BONDI JUNCTION,2022.0,-33.89140319824220,151.25082397460900,0.48947368421052600
11,SHOP EG07 07B BUNDA ST CANBERRA CENTRE SHOPPING CENTRE CANBERRA CITY 2601 ACT,0,,,,,,,
12,86 BEAUMONT STREET HAMILTON 2303 NSW,1,9233512.0,86 BEAUMONT ST HAMILTON NSW 2303,HAMILTON,2303.0,-32.921730041503900,151.7471160888670,0.8703703703703700
13,SHOP 14 MANLY WHARF EAST ESPLANADE MANLY 2095 NSW,0.5,8441976.0,UNIT 14 415 ESPLANADE MANLY QLD 4179,MANLY,4179.0,-27.45166778564450,153.18588256835900,0.22435897435897400
14,SHOP 10 31 WORLD SQUARE SHOPPING CENTRE 680 GEORGE ST SYDNEY 2000 NSW,1,7211846.0,LEVEL 31 680 GEORGE ST SYDNEY NSW 2000,SYDNEY,2000.0,-33.87741470336910,151.20631408691400,0.40116279069767400
15,SHOP 73 RHODES WATERSIDE SHOPPING CENTRE 1 RIDER BLVD RHODES 2138 NSW,1,3057556.0,UNIT 73 1 RIDER BVD RHODES NSW 2138,RHODES,2138.0,-33.835975646972700,151.0848846435550,0.5432098765432100
16,UNIVERSITY TERRACES LOWER KENSINGTON CAMPUS HIGH ST KENSINGTON 2052 NSW,0,,,,,,,
17,WESTFIELD PARRAMATTA SHOP 4068 LEVEL 4 159 175 CHURCH STREET PARRAMATTA 2150 NSW,1,10993192.0,SHOP 4068 175 CHURCH ST PARRAMATTA NSW 2150,PARRAMATTA,2150.0,-33.817726135253900,151.00216674804700,0.4066666666666670
18,FOUNTAIN PLAZA SHOPPING CENTRE SHOP 11B 148 THE ENTRANCE ROAD ERINA 2250 NSW,1,14756505.0,148 THE ENTRANCE ROAD ERINA NSW 2250,ERINA,2250.0,-33.43860626220700,151.38327026367200,0.39534883720930200
19,CHARLESTOWN SQUARE SHOPPING CENTRE TENANCY L02 K213 30 PEARSON STREET CHARLESTOWN 2290 NSW,1,1539894.0,SHOP 213 30 PEARSON ST CHARLESTOWN NSW 2290,CHARLESTOWN,2290.0,-32.964046478271500,151.69384765625,0.2967032967032970
20,WESTFIELD BELCONNEN TENANCY 312 BENJAMIN WAY BELCONNEN 2617 ACT,0,14383540.0,57 BENJAMIN WAY BELCONNEN ACT 2617,BELCONNEN,2617.0,-35.242408752441400,149.06781005859400,0.32142857142857100
21,TENANCY 2018 STOCKLAND SHELLHARBOUR 211 LAKE ENTRANCE RD SHELLHARBOUR 2529 NSW,0.5,6079990.0,SHOP 1018 211 LAKE ENTRANCE RD SHELLHARBOUR CITY CENTRE NSW 2529,SHELLHARBOUR CITY CENTRE,2529.0,-34.56638717651370,150.83941650390600,0.4888888888888890
22,TENANCY 12B 12C GREENWAY PLAZA 1183 1187 THE HORSLEY DR WETHERILL PARK 2164 NSW,1,10551307.0,1183 1187 THE HORSLEY DRIVE WETHERILL PARK NSW 2164,WETHERILL PARK,2164.0,-33.85005187988280,150.89785766601600,0.3958762886597940
23,TENANCY L01 C034B MACARTHUR SQUARE SHOPPING CENTRE 200 GILCHRIST DRIVE CAMPBELLTOWN 2560 NSW,1,9323336.0,MACARTHUR SQUARE 200 GILCHRIST DR CAMPBELLTOWN NSW 2560,CAMPBELLTOWN,2560.0,-34.0777587890625,150.79779052734400,0.3348623853211010
24,52 JONSON STREET BYRON BAY 2481 NSW,1,7549324.0,52 JONSON ST BYRON BAY NSW 2481,BYRON BAY,2481.0,-28.643447875976600,153.61195373535200,0.851063829787234
25,TENANCY GD W116 WOLLONGONG CENTRAL SHOPPING CENTRE KEIRA STREET WOLLONGONG 2500 NSW,0.5,5164716.0,WOLLONGONG CENTRAL 168 218 CROWN ST WOLLONGONG NSW 2500,WOLLONGONG,2500.0,-34.42470169067380,150.89422607421900,0.24725274725274700
26,54 BAYLIS STREET WAGGA WAGGA 2650 NSW,1,4371464.0,54 BAYLIS ST WAGGA WAGGA NSW 2650,WAGGA WAGGA,2650.0,-35.11680603027340,147.3687744140630,0.8367346938775510
27,SHOP 2 82 MULGOA RD PENRITH 2750 NSW,0,13386546.0,OAKWOOD UNIT 2 61 MULGOA RD PENRITH NSW 2750,PENRITH,2750.0,-33.75551986694340,150.6857147216800,0.4413145539906100
28,TENANCY R3001 PIAZZA AREA TOP RYDE SHOPPING CENTRE CNR BLAXLAND RD DEVLIN ST RYDE 2112 NSW,0.5,12746354.0,TOP RYDE SHOPPING CENTRE RETAIL CAR PARK 111 BLAXLAND RD RYDE NSW 2112,RYDE,2112.0,-33.81230926513670,151.1072235107420,0.2971698113207550
29,LEVEL 2 FOOD PRECINCT SHOP S219 BROADWAY SHOPPING CENTRE 1 BAY ST BROADWAY 2007 NSW,0,10087091.0,CHILD CARE CENTRE 1 2 TOONA WAY GLENNING VALLEY NSW 2261,GLENNING VALLEY,2261.0,-33.33510971069340,151.4288787841800,0.1891891891891890
30,SHOP 304 326 CAMDEN VALLEY WAY NARELLAN 2567 NSW,1,11728234.0,SHOP 304 326 CAMDEN VALLEY WAY NARELLAN NSW 2567,NARELLAN,2567.0,-34.04167175292970,150.73716735839800,0.9696969696969700
31,SHOP T2 8 TOWER 2 DREAM DINING 201 SUSSEX ST SYDNEY 2000 NSW,1,8605837.0,SHOP 2 201 SUSSEX ST SYDNEY NSW 2000,SYDNEY,2000.0,-33.87205505371090,151.20343017578100,0.3666666666666670
32,SHOP E 05 14 DARLING DRIVE DARLING HARBOUR SYDNEY 2000 NSW,1,15041574.0,CONVENTION CENTRE 14 DARLING DR SYDNEY NSW 2000,SYDNEY,2000.0,-33.871578216552700,151.20013427734400,0.36947791164658600
33,SHOP 30 30 33 HIBBERSON STREET GUNGAHLIN 2912 ACT,1,15284572.0,SHOP 30 33 HIBBERSON ST GUNGAHLIN ACT 2912,GUNGAHLIN,2912.0,-35.185237884521500,149.13412475585900,0.921875
34,LOT 52 COOK DRIVE COFFS HARBOUR 2450 NSW,0,5430252.0,52 COOK ST BROADWATER NSW 2472,BROADWATER,2472.0,-29.02156639099120,153.43109130859400,0.19736842105263200
35,OUTLET 2 752 GEORGE STREET BLIGH PARK 2756 NSW,1,2893676.0,752 GEORGE ST SOUTH WINDSOR NSW 2756,SOUTH WINDSOR,2756.0,-33.64063262939450,150.7857208251950,0.35238095238095200
36,SHOP 4 140 MARSDEN ST PARRAMATTA 2150 NSW,1,5825860.0,V BY CROWN SHOP 4 140 MARSDEN ST PARRAMATTA NSW 2150,PARRAMATTA,2150.0,-33.81528854370120,151.0013427734380,0.7971014492753620
37,164 MONA VALE ROAD ST IVES 2057 NSW,0.5,11697154.0,UNIT 201A 164 MONA VALE RD ST IVES NSW 2075,ST IVES,2075.0,-33.73072052001950,151.1570587158200,0.3712121212121210
38,4 DUNHEVED ROAD WERRINGTON 2747 NSW,1,4361058.0,4 DUNHEVED RD WERRINGTON COUNTY NSW 2747,WERRINGTON COUNTY,2747.0,-33.745765686035200,150.74099731445300,0.7540983606557380
39,1 MOLLY MORGAN DRIVE EAST MAITLAND 2323 NSW,1,1580692.0,1 MOLLY MORGAN DR EAST MAITLAND NSW 2323,EAST MAITLAND,2323.0,-32.7629508972168,151.59169006347700,0.8620689655172410
40,SHOP 5 888 PITTWATER RD DEE WHY 2099 NSW,1,6018209.0,SHOP 5 888 PITTWATER RD DEE WHY NSW 2099,DEE WHY,2099.0,-33.753143310546900,151.28749084472700,0.9655172413793100
41,SHOP 31 FORTITUDE VALLEY EMPORIUM 1000 ANN STREET FORTITUDE VALLEY 4006 QLD,1,15556559.0,SHOP 31 1000 ANN ST FORTITUDE VALLEY QLD 4006,FORTITUDE VALLEY,4006.0,-27.45348358154300,153.0395050048830,0.810126582278481
42,SHOP E116 THE ORACLE SHOPPING CENTRE 3 ORACLE BOULEVARDE OFF CHARLES AVENUE BROADBEACH 4218 QLD,0,4442406.0,JUPITERS CASINO 3 THE DARLING AVENUE BROADBEACH QLD 4218,BROADBEACH,4218.0,-28.032262802124000,153.42965698242200,0.3657817109144540
43,SHOP 1204 WESTFIELD CARINDALE 1151 CREEK ROAD CARINDALE 4152 QLD,1,11445755.0,CARINDALE SHOPPING CENTRE SHOP 1204 1151 CREEK RD CARINDALE QLD 4152,CARINDALE,4152.0,-27.503145217895500,153.10165405273400,0.6951219512195120
44,SHOP 1143 WESTFIELD NORTH LAKES CNR ANZAC AVE AND NORTH LAKES DRIVE NORTH LAKES 4509 QLD,1,7093975.0,SHOP 1143 1 NORTH LAKES DR NORTH LAKES QLD 4509,NORTH LAKES,4509.0,-27.242116928100600,153.01658630371100,0.6341463414634150
45,179 GREY STREET SOUTH BRISBANE 4101 QLD,1,15307095.0,179 GREY ST SOUTH BRISBANE QLD 4101,SOUTH BRISBANE,4101.0,-27.47968101501470,153.02194213867200,0.9152542372881360
46,ROBINA TOWN CENTRE SHOPPING CENTRE FOOD ATRIUM TENANCY 2037 19 ROBINA TOWN CENTRE DRIVE ROBINA 4230 QLD,1,9964439.0,ROBINA TOWN CENTRE SHOP 2037 19 ROBINA TOWN CENTRE DR ROBINA QLD 4226,ROBINA,4226.0,-28.077295303344700,153.38531494140600,0.4285714285714290
47,SHOP 567 KAWANA SHOPPINGWORLD 119 POINT CARTWRIGHT DRIVE BUDDINA 4575 QLD,0.5,7952949.0,KAWANA SHOPPING WORLD SHOP 367 119 POINT CARTWRIGHT DR BUDDINA QLD 4575,BUDDINA,4575.0,-26.702774047851600,153.13079833984400,0.5543859649122810
48,STOCKLAND GLADSTONE EAST MALL CORNER OF PHILIP STREET AND THE DAWSON HIGHWAY GLADSTONE 4680 QLD,1,1128060.0,STOCKLAND GLADSTONE 195 PHILIP ST WEST GLADSTONE QLD 4680,WEST GLADSTONE,4680.0,-23.86976432800290,151.24264526367200,0.5
49,SHOP 111 142 NEWMARKET RD WINDSOR 4030 QLD,1,13688426.0,SHOP 111 142 NEWMARKET RD WINDSOR QLD 4030,WINDSOR,4030.0,-27.438032150268600,153.02371215820300,0.9836065573770490
50,SHOP 316C LOGAN HYPERDOME SHOPPING CENTRE LOGANHOLME 4129 QLD,1,1818884.0,HYPERDOME MALL HYPERDOME PLUS SHOP 316C 3828 3846 PACIFIC HWY SHAILER PARK QLD 4128,SHAILER PARK,4128.0,-27.658950805664100,153.17161560058600,0.20535714285714300
51,SHOP B007 HARBOUR TOWN SHOPPING CENTRE 147 189 BRISBANE RD BIGGERA WATERS 4216 QLD,1,7339158.0,HARBOUR TOWN SHOPPING CENTRE 147 189 BRISBANE RD BIGGERA WATERS QLD 4216,BIGGERA WATERS,4216.0,-27.9314022064209,153.38778686523400,0.696969696969697
52,SHOP 022 PARADISE CENTRE CAVILL MALL 8 CAVILL AVENUE SURFERS PARADISE 4217 QLD,0.5,2109428.0,PARADISE CENTRE SHOP 102 8 10 CAVILL AV SURFERS PARADISE QLD 4217,SURFERS PARADISE,4217.0,-28.002290725708000,153.4300994873050,0.5476190476190480
53,POST OFFICE SQUARE 215 ADELAIDE STREET BRISBANE 4000 QLD,1,1074722.0,215 ADELAIDE ST BRISBANE CITY QLD 4000,BRISBANE CITY,4000.0,-27.46738052368160,153.0269317626950,0.6133333333333330
54,TENANCY 5 CENTRAL VILLAGE LITTLE FLETCHER STREET TOWNSVILLE 4810 QLD,1,3856356.0,SHOP 5 10 LITTLE FLETCHER ST TOWNSVILLE CITY QLD 4810,TOWNSVILLE CITY,4810.0,-19.267107009887700,146.8114471435550,0.6777777777777780
55,TENANCY R4 WESTFIELD CHERMSIDE CORNER GYMPIE AND HAMILTON ROAD CHERMSIDE 4032 QLD,0,,,,,,,
56,TOOWONG VILLAGE 9 SHERWOOD ROAD TOOWONG 4066 QLD,1,6292325.0,TOOWONG VILLAGE 9 SHERWOOD RD TOOWONG QLD 4066,TOOWONG,4066.0,-27.485034942627000,152.9925079345700,0.9137931034482760
57,SHOP 2 SUPER ROOSTER CENTRE 794A RUTHVEN STREET TOOWOOMBA SOUTH 4350 QLD,1,10832838.0,SUPER ROOSTER EAGLE BOYS 794A 796 RUTHVEN ST SOUTH TOOWOOMBA QLD 4350,SOUTH TOOWOOMBA,4350.0,-27.584545135498000,151.9498748779300,0.4511784511784510
58,SHOP 13A 103 DUCKWORTH STREET GARBUTT 4814 QLD,1,8858032.0,SHOP 13A 103 141 DUCKWORTH ST GARBUTT QLD 4814,GARBUTT,4814.0,-19.275774002075200,146.7578582763670,0.8695652173913040
59,8 WALLA ST BUNDABERG 4670 QLD,1,7204916.0,8 WALLA ST BUNDABERG CENTRAL QLD 4670,BUNDABERG CENTRAL,4670.0,-24.863950729370100,152.3555908203130,0.8214285714285710
60,BUILDING G 2 PAPPAS WAY CNR MORTENSEN ROAD AND PAPPAS WAY WEST NERANG 4211 QLD,1,11229156.0,2 PAPPAS WAY WEST NERANG QLD 4211,NERANG,4211.0,-28.007081985473600,153.34112548828100,0.5875
61,TENANCY F2 STOCKLAND SHOPPING CENTRE 120 331 YAAMBA ROAD ROCKHAMPTON 4701 QLD,1,15046274.0,SHOP 120 331 YAAMBA RD PARK AVENUE QLD 4701,PARK AVENUE,4701.0,-23.354171752929700,150.5222625732420,0.3608490566037740
62,SHOP 18 BURANDA VILLAGE CNR IPSWICH RD CORNWALL ST WOOLLONGABBA 4102 QLD,1,1282931.0,18 BURANDA ST WOOLLOONGABBA QLD 4102,WOOLLOONGABBA,4102.0,-27.493192672729500,153.04002380371100,0.5652173913043480
63,LINK FOOD MARKET THE LINK BUILDING GRIFFITH UNIVERSITY GOLD COAST CAMPUS PARKLANDS DRIVE SOUTHPORT 4215 QLD,1,2387011.0,GRIFFITH UNIVERSITY 58 PARKLANDS DR SOUTHPORT QLD 4215,SOUTHPORT,4215.0,-27.962814331054700,153.3805389404300,0.6120689655172410
64,SHOP 0009 GRAND CENTRAL SHOPPING CENTRE CNR MARGARET STREET VICTORIA STREET TOOWOOMBA 4350 QLD,0.5,5993487.0,GRAND CENTRAL SC SHOP 29 244 252 MARGARET ST TOOWOOMBA CITY QLD 4350,TOOWOOMBA CITY,4350.0,-27.5614070892334,151.95010375976600,0.3160377358490570
65,SHOP 1 1439 BEAUDESERT ROAD ACACIA RIDGE 4110 QLD,1,6152587.0,SHOP 1 1439 BEAUDESERT RD ACACIA RIDGE QLD 4110,ACACIA RIDGE,4110.0,-27.58905029296880,153.02706909179700,0.9264705882352940
66,1A 108 OLD CLEVELAND RD CAPALABA 4157 QLD,1,13644642.0,108 OLD CLEVELAND RD CAPALABA QLD 4157,CAPALABA,4157.0,-27.520191192627000,153.19345092773400,0.6289308176100630
67,FS004 27 49 BROWNS PLAINS ROAD GRAND PLAZA BROWNS PLAINS 4118 QLD,1,7601046.0,GRAND PLAZA SHOP 104 27 49 BROWNS PLAINS RD BROWNS PLAINS QLD 4118,BROWNS PLAINS,4118.0,-27.66288185119630,153.0403594970700,0.5777027027027030
68,TENANCY C 3 GATEWAY DRIVE AUGUSTINE HEIGHTS 4300 QLD,1,3249117.0,3 GATEWAY DR AUGUSTINE HEIGHTS QLD 4300,AUGUSTINE HEIGHTS,4300.0,-27.671539306640600,152.89581298828100,0.7746478873239440
69,1 BEACH RD MAROOCHYDORE 4558 QLD,1,8122853.0,1 BEACH RD MAROOCHYDORE QLD 4558,MAROOCHYDORE,4558.0,-26.652421951293900,153.08932495117200,0.9787234042553190
70,BUILDING J 1 COMMERCIAL ST COOMERA 4209 QLD,1,14829614.0,1 COMMERCIAL ST UPPER COOMERA QLD 4209,UPPER COOMERA,4209.0,-27.85016441345220,153.30177307128900,0.6666666666666670
71,PO2 STOCKLAND BURLEIGH HEADS 143 WEST BURLEIGH RD BURLEIGH HEAD 4220 QLD,0,2952995.0,143 GEORGE ST WEST BURLEIGH HEADS QLD 4220,BURLEIGH HEADS,4220.0,-28.092344284057600,153.444580078125,0.4588744588744590
72,SHOP 1105 L01 HIGHPOINT SHOPPING CENTRE 200 ROSAMOND RD MARIBYRNONG 3032 VIC,1,294707.0,HIGHPOINT SHOPPING CENTRE UNIT 1105 120 200 ROSAMOND RD MARIBYRNONG VIC 3032,MARIBYRNONG,3032.0,-37.77289962768560,144.88636779785200,0.6328125
73,289 299 SWANSTON ST MELBOURNE 3000 VIC,1,15265314.0,LEVEL 1 289 299 SWANSTON ST MELBOURNE VIC 3000,MELBOURNE,3000.0,-37.811180114746100,144.96432495117200,0.8548387096774190
74,COLLINS PLACE FOOD COURT TENANCY 53 45 COLLINS STREET MELBOURNE 3000 VIC,1,14033817.0,SHOP 53 45 COLLINS ST MELBOURNE VIC 3000,MELBOURNE,3000.0,-37.81462478637700,144.97203063964800,0.6046511627906980
75,SHOP 1118 WESTFIELD FOUNTAIN GATE 352 PRINCES HIGHWAY NARRE WARREN 3805 VIC,1,931928.0,WESTFIELD FOUNTAIN GATE SHOPPING CENTRE SHOP 1118 25 55 OVERLAND DR NARRE WARREN VIC 3805,NARRE WARREN,3805.0,-38.02092361450200,145.30763244628900,0.43452380952381000
76,RE06 PACIFIC WERRIBEE SHOPPING CENTRE CNR DERRIMUT AND HEATHS ROADS WERRIBEE 3030 VIC,0,,,,,,,
77,TENANCY 7AA 567 COLLINS ST MELBOURNE 3000 VIC,1,8978962.0,TENANCY 7A 567 COLLINS ST MELBOURNE VIC 3000,MELBOURNE,3000.0,-37.818843841552700,144.95565795898400,0.6358974358974360
78,SHOP 6 7 190 TOORAK ROAD SOUTH YARRA 3141 VIC,1,2162812.0,LEVEL G 190 TOORAK RD SOUTH YARRA VIC 3141,SOUTH YARRA,3141.0,-37.839378356933600,144.99337768554700,0.3246753246753250
79,21 CHANCELLOR S WALK MONASH UNIVERSITY CLAYTON CAMPUS MELBOURNE 3800 VIC,0,8454467.0,21 CHANCELLOR AV WERRIBEE VIC 3030,WERRIBEE,3030.0,-37.899375915527300,144.59616088867200,0.18137254901960800
80,SHOP 1 674 680 GLENFERRIE ROAD HAWTHORN 3122 VIC,1,4865783.0,UNIT 1 674 680 GLENFERRIE RD HAWTHORN VIC 3122,HAWTHORN,3122.0,-37.820892333984400,145.03590393066400,0.7948717948717950
81,150 158 CONDON STREET KENNINGTON 3550 VIC,1,10853195.0,150 158 CONDON ST KENNINGTON VIC 3550,KENNINGTON,3550.0,-36.7744255065918,144.30691528320300,0.8867924528301890
82,SHOP 18 KINGSTON CENTRAL PLAZA 288 CENTRE DANDENONG ROAD MENTONE 3194 VIC,1,1333989.0,KINGSTON CENTRAL PLAZA SHOP 18 288 CENTRE DANDENONG RD MOORABBIN AIRPORT VIC 3194,MOORABBIN AIRPORT,3194.0,-37.970619201660200,145.0923309326170,0.76
83,CORNER SHARP RD ASSEMBLY DRIVE TULLAMARINE 3043 VIC,0,,,,,,,
84,PAD SITE 1 CRANBOURNE HOMEMAKER CENTRE 398 SOUTH GIPPSLAND HWY CRANBOURNE 3977 VIC,1,14605687.0,SHOP 1 350 398 SOUTH GIPPSLAND HWY CRANBOURNE VIC 3977,CRANBOURNE,3977.0,-38.086307525634800,145.27880859375,0.6875
85,87 JAMES ST NORTHBRIDGE 6003 WA,1,15101539.0,87 JAMES ST NORTHBRIDGE WA 6003,NORTHBRIDGE,6003.0,-31.948957443237300,115.85832977294900,0.9615384615384620
86,644 BEAUFORT STREET MT LAWLEY 6050 WA,1,9080829.0,644 BEAUFORT ST MOUNT LAWLEY WA 6050,MOUNT LAWLEY,6050.0,-31.934825897216800,115.87226867675800,0.7931034482758620
87,TENANCY R5 COCKBURN GATEWAY SHOPPING CENTRE 816 BEELIAR DRIVE SUCCESS 6164 WA,1,10006378.0,COCKBURN GATEWAY SHOPPING CENT SHOP 5 816 BEELIAR DR SUCCESS WA 6164,SUCCESS,6164.0,-32.131011962890600,115.85657501220700,0.5429553264604810
88,145 OXFORD STREET LEEDERVILLE 6007 WA,1,3254375.0,145 OXFORD ST LEEDERVILLE WA 6007,LEEDERVILLE,6007.0,-31.936765670776400,115.84097290039100,0.9090909090909090
89,SHOP FB005 BELMONT FORUM SHOPPING CENTRE 227 BELMONT AVE CLOVERDALE 6105 WA,0.5,9785254.0,BELMONT FORUM SHOPPING CENTRE SHOP 65 227 BELMONT AV CLOVERDALE WA 6105,CLOVERDALE,6105.0,-31.96458625793460,115.9355239868160,0.6196078431372550
90,SHOP 1 316 CNR MARMION AND WHITFORD AVENUE HILLARYS 6025 WA,0,233076.0,SHOP 1 316 MILITARY RD CREMORNE NSW 2090,CREMORNE,2090.0,-33.82950973510740,151.22738647460900,0.2925170068027210
91,UNIT 2 319 NEW ENGLAND HIGHWAY RUTHERFORD 2320 NSW,1,4285239.0,UNIT 2 319 NEW ENGLAND HWY RUTHERFORD NSW 2320,RUTHERFORD,2320.0,-32.71269226074220,151.5188751220700,0.8985507246376810
92,CNR CHUNG WAH TCE LAMBRICK AVE BAKEWELL 832 NT,0,,,,,,,
93,726 DECEPTION BAY ROAD ROTHWELL 4022 QLD,1,848373.0,726 DECEPTION BAY RD ROTHWELL QLD 4022,ROTHWELL,4022.0,-27.21141815185550,153.04647827148400,0.9333333333333330
94,BUILDING 63 TENANCY T3 UQ PHYSICAL THEATRE AND REFECTORY BUILDING UNIVERSITY OF QUEENSLAND 4072 QLD,0,,,,,,,
95,CORNER CLEVELAND REDLAND BAY RD BUNKER RD VICTORIA POINT SHOPPING CENTRE VICTORIA POINT 4165 QLD,1,8464013.0,VICTORIA POINT SHOPPING CENTRE 2 34 BUNKER RD VICTORIA POINT QLD 4165,VICTORIA POINT,4165.0,-27.587841033935500,153.2809295654300,0.7368421052631580
96,SHOP 2052 EASTLAND SHOPPING CENTRE 175 MAROONDAH HWY RINGWOOD 3134 VIC,0.5,13326765.0,EASTLAND SHOPPING CENTRE SHOP 2 175 MAROONDAH HWY RINGWOOD VIC 3134,RINGWOOD,3134.0,-37.81483840942380,145.22959899902300,0.6136363636363640
97,BIRTINYA SERVICE CENTRE KAWANA WAY BIRTINYA 4575 QLD,0.5,6739099.0,566 KAWANA WAY BIRTINYA QLD 4575,BIRTINYA,4575.0,-26.7359676361084,153.1195068359380,0.640625
98,566 594 PRINCES HIGHWAY KIRRAWEE 2232 NSW,1,5267168.0,542 594 PRINCES HWY KIRRAWEE NSW 2232,KIRRAWEE,2232.0,-34.03236770629880,151.0758056640630,0.5208333333333330
99,249 MIDDLEBOROUGH ROAD BOX HILL 3128 VIC,1,10605206.0,249 MIDDLEBOROUGH RD BOX HILL SOUTH VIC 3128,BOX HILL SOUTH,3128.0,-37.837711334228500,145.13478088378900,0.8208955223880600
100,328 SALISBURY HIGHWAY SALISBURY DOWNS 5108 SA,1,12127792.0,328 SALISBURY HWY SALISBURY DOWNS SA 5108,SALISBURY DOWNS,5108.0,-34.77909851074220,138.62725830078100,0.8490566037735850
101,53 GOUGER ST ADELAIDE 5000 SA,1,6447343.0,53 GOUGER ST ADELAIDE SA 5000,ADELAIDE,5000.0,-34.93049621582030,138.59727478027300,0.9512195121951220
102,23 25 BURNS BAY ROAD LANE COVE 2066 NSW,1,12438357.0,23 25 BURNS BAY RD LANE COVE NSW 2066,LANE COVE,2066.0,-33.814334869384800,151.16900634765600,0.8928571428571430
103,SHOP 16 LEVEL 8 100 MILLER ST NORTH SYDNEY 2060 NSW,1,9277281.0,LEVEL 8 100 MILLER ST NORTH SYDNEY NSW 2060,NORTH SYDNEY,2060.0,-33.83781051635740,151.20663452148400,0.6492537313432840
104,11 6 8 CASTLE STREET CASTLE HILLS 2154 NSW,1,4187523.0,8 CASTLE LEA CT CASTLE HILL NSW 2154,CASTLE HILL,2154.0,-33.72699737548830,151.0279083251950,0.3157894736842110
105,90 ABBOTSFORD RD BOWEN HILLS 4006 QLD,1,3363988.0,90 ABBOTSFORD RD BOWEN HILLS QLD 4006,BOWEN HILLS,4006.0,-27.442916870117200,153.03839111328100,0.9811320754716980
106,SHOP 1 18 STAMFORD ROAD INDOOROOPILLY 4068 QLD,1,13529774.0,SHOP 1 18 STAMFORD RD INDOOROOPILLY QLD 4068,INDOOROOPILLY,4068.0,-27.49799346923830,152.97421264648400,0.9661016949152540
107,33 KING WILLIAM STREET ADELAIDE 5000 SA,1,15635993.0,33 KING WILLIAM ST ADELAIDE SA 5000,ADELAIDE,5000.0,-34.922786712646500,138.59913635253900,0.8679245283018870
108,325 NORTH EAST ROAD HILLCREST 5086 SA,1,9472860.0,325 NORTH EAST RD HILLCREST SA 5086,HILLCREST,5086.0,-34.86427688598630,138.64614868164100,0.8909090909090910
109,5 11 PATRICKS RD ARANA HILLS 4054 QLD,1,9783655.0,ARANA HILLS PLAZA SHOP 1 5 11 PATRICKS RD ARANA HILLS QLD 4054,ARANA HILLS,4054.0,-27.39910316467290,152.95909118652300,0.8
110,TENANCY 56 HOMEWORLD HELENSVALE 502 HOPE ISLAND ROAD HELENSVALE 4212 QLD,1,4061224.0,SHOP 56 502 HOPE ISLAND RD HELENSVALE QLD 4212,HELENSVALE,4212.0,-27.8876953125,153.31918334960900,0.7105263157894740
111,HAYNES SHOPPING CENTRE CORNER EIGHTH ROAD ARMADALE ROAD HAYNES 6442 WA,0,,,,,,,
112,491 MASONITE ROAD HEATHERBRAE 2324 NSW,1,2048172.0,491 MASONITE RD HEATHERBRAE NSW 2324,HEATHERBRAE,2324.0,-32.78299331665040,151.737548828125,0.8928571428571430
113,SHOP 2 38 ABBOTT ROAD SEVEN HILLS 2147 NSW,1,1404178.0,38 ABBOTT RD SEVEN HILLS NSW 2147,SEVEN HILLS,2147.0,-33.76691436767580,150.954833984375,0.53125
114,SHOP 1 THE CONCOURSE 409 VICTORIA AVENUE CHATSWOOD 2067 NSW,1,5938157.0,SHOP 1 409 VICTORIA AV CHATSWOOD NSW 2067,CHATSWOOD,2067.0,-33.795562744140600,151.1837615966800,0.7435897435897440
115,SHOP 24A 100 PARRAMATTA ROAD AUBURN 2144 NSW,0.5,8575373.0,SHOP 14 100 PARRAMATTA RD AUBURN NSW 2144,AUBURN,2144.0,-33.84645462036130,151.0432586669920,0.5901639344262300
116,5 PINE STREET NORTH IPSWICH 4305 QLD,1,15545210.0,5 PINE ST NORTH IPSWICH QLD 4305,NORTH IPSWICH,4305.0,-27.60793113708500,152.76266479492200,0.9056603773584910
117,R 12B 275 KENT ST SYDNEY 2000 NSW,1,6111544.0,275 KENT ST SYDNEY NSW 2000,SYDNEY,2000.0,-33.86598205566410,151.20382690429700,0.5185185185185190
118,9 KING STREET WARNERS BAY 2282 NSW,1,1542011.0,9 KING ST WARNERS BAY NSW 2282,WARNERS BAY,2282.0,-32.96841812133790,151.65135192871100,0.88
119,130 136 ANZAC HWY GLANDORE 5037 SA,1,8029301.0,134 136 ANZAC HWY GLANDORE SA 5037,GLANDORE,5037.0,-34.95534896850590,138.56890869140600,0.5833333333333330
120,1382 ALBANY HIGHWAY CAROUSEL 6107 WA,1,59219.0,WESTFIELD CAROUSEL SHOPPING CE 1382 ALBANY HWY CANNINGTON WA 6107,CANNINGTON,6107.0,-32.01876449584960,115.93844604492200,0.5795454545454550
121,TARNEIT CENTRAL 540 DERRIMUT ROAD TARNEIT 3029 VIC,1,11125421.0,TARNEIT CENTRAL 540 DERRIMUT RD TARNEIT VIC 3029,TARNEIT,3029.0,-37.83635330200200,144.6911163330080,0.8888888888888890
122,CNR DEAKIN AVE FIFTEENTH STREET MILDURA 3500 VIC,0,,,,,,,
123,KOTARA HOME CENTRE 1 KULLAIBA ROAD KOTARA 2289 NSW,1,10042406.0,SHOP 19 1 KULLAIBA RD KOTARA NSW 2289,KOTARA,2289.0,-32.93925094604490,151.7096710205080,0.6666666666666670
124,SHOP 29 30 FORREST WAY SHOPPING CENTRE WARRINGAH ROAD FORREST WAY FRENCHS FOREST 2086 NSW,1,1770617.0,SHOP 30 2 18 FOREST WAY FRENCHS FOREST NSW 2086,FRENCHS FOREST,2086.0,-33.750919342041000,151.2253875732420,0.39215686274509800
125,SHOP 9A VALLEY METRO 230 BRUNSWICK STREET FORTITUDE VALLEY 4006 QLD,1,13610314.0,SHOP 9 230 BRUNSWICK ST FORTITUDE VALLEY QLD 4006,FORTITUDE VALLEY,4006.0,-27.4558162689209,153.03404235839800,0.5606060606060610
126,SHOP NO FS1 STAFFORD CITY SHOPPING CENTRE 400 STAFFORD ROAD STAFFORD 4053 QLD,1,1322588.0,STAFFORD CITY SHOPPING CENTRE SHOP 1 400 STAFFORD RD STAFFORD QLD 4053,STAFFORD,4053.0,-27.412073135376000,153.0123748779300,0.5675675675675680
127,421 LOGAN RIVER ROAD BETHANIA 4205 QLD,0.5,4772151.0,LOT 1 LOGAN RIVER RD BETHANIA QLD 4205,BETHANIA,4205.0,-27.6964054107666,153.15618896484400,0.4224137931034480
128,3 GRAHAM AVENUE CASULA 2170 NSW,1,12402663.0,3 GRAHAM AV CASULA NSW 2170,CASULA,2170.0,-33.94034194946290,150.91201782226600,0.8235294117647060
129,TENANCY 1 88 BUNDALL ROAD BUNDALL 4217 QLD,1,4462232.0,88 BUNDALL RD BUNDALL QLD 4217,BUNDALL,4217.0,-28.006284713745100,153.41244506835900,0.4150943396226420
130,47 MAROONDAH HWY CROYDON 3136 VIC,1,8112936.0,47 MAROONDAH HWY CROYDON VIC 3136,CROYDON,3136.0,-37.790897369384800,145.26315307617200,0.9591836734693880
131,24 ADELAIDE RD MT BARKER 5251 SA,1,13538033.0,24 ADELAIDE RD MOUNT BARKER SA 5251,MOUNT BARKER,5251.0,-35.06670379638670,138.8569793701170,0.8148148148148150
132,1 PARK PL CALOUNDRA 4551 QLD,1,9275384.0,1 PARK PL CALOUNDRA QLD 4551,CALOUNDRA,4551.0,-26.804540634155300,153.12353515625,0.975609756097561
133,205 GOVERNMENT ROAD RICHLANDS 4077 QLD,1,3758409.0,205 GOVERNMENT RD RICHLANDS QLD 4077,RICHLANDS,4077.0,-27.599912643432600,152.9505615234380,0.9152542372881360
134,1 NEXUS DRIVE PIMPAMA 4209 QLD,1,4892636.0,1 NEXUS DR PIMPAMA QLD 4209,PIMPAMA,4209.0,-27.82154083251950,153.29580688476600,0.8431372549019610
135,F09 13 HERVEY RANGE ROAD THURINGOWA CENTRAL 4817 QLD,0.5,4395684.0,SHOP 179 13 HERVEY RANGE RD THURINGOWA CENTRAL QLD 4817,THURINGOWA CENTRAL,4817.0,-19.314298629760700,146.7271728515630,0.5365853658536590
136,460 GREENHILL RD LINDEN PARK 5065 SA,1,13637643.0,460 GREENHILL RD LINDEN PARK SA 5065,LINDEN PARK,5065.0,-34.939170837402300,138.65029907226600,0.9615384615384620
137,2125 SANDGATE RD BOONDALL 4034 QLD,1,1228504.0,2125 SANDGATE RD BOONDALL QLD 4034,BOONDALL,4034.0,-27.36319351196290,153.06201171875,0.9803921568627450
138,647 651 WAVERLEY ROAD MALVERN EAST 3145 VIC,1,14154435.0,647 651 WAVERLEY RD MALVERN EAST VIC 3145,MALVERN EAST,3145.0,-37.87962341308590,145.09014892578100,0.890625
139,PART 71 FLEMINGTON ROAD MELBOURNE 3051 VIC,1,13006137.0,71 FLEMINGTON RD NORTH MELBOURNE VIC 3051,NORTH MELBOURNE,3051.0,-37.79920959472660,144.9539031982420,0.7605633802816900
140,179 203 BOAT HARBOUR DRIVE PIALBA 4655 QLD,1,7875987.0,179 203 BOAT HARBOUR DR PIALBA QLD 4655,PIALBA,4655.0,-25.289213180542000,152.83963012695300,0.8769230769230770
141,617 641 MAIN SOUTH RD OLD NOARLUNGA 5168 SA,1,9927780.0,617 MAIN SOUTH RD OLD NOARLUNGA SA 5168,OLD NOARLUNGA,5168.0,-35.18210983276370,138.49380493164100,0.6
142,TENANCY 1 507 515 PACIFIC HWY BELMONT 2280 NSW,1,7016371.0,515 PACIFIC HWY BELMONT NSW 2280,BELMONT,2280.0,-33.032752990722700,151.6611785888670,0.3880597014925370
143,PAD SITE 1 BURNSIDE PARK HUB WESTERN HIGHWAY BURNSIDE 3023 VIC,0.5,10036473.0,UNIT 1 1 BURNSIDE ST DEER PARK VIC 3023,DEER PARK,3023.0,-37.770870208740200,144.77227783203100,0.6052631578947370
144,158 164 HAWKESBURY RD WESTMEAD 2145 NSW,1,7914562.0,164 HAWKESBURY RD WESTMEAD NSW 2145,WESTMEAD,2145.0,-33.80652618408200,150.9873046875,0.5862068965517240
145,PAD 2 CNR 420 MILES PLATTING AND GARDNER ROADS ROCHEDALE 4123 QLD,1,3655448.0,420 MILES PLATTING RD ROCHEDALE QLD 4123,ROCHEDALE,4123.0,-27.578418731689500,153.11331176757800,0.49572649572649600
146,CORNER OF HUME HIGHWAY AND MAHONEY S ROAD SYDNEY ROAD CAMPBELLFIELD 3061 VIC,0.5,,,,,,,
147,SHOP FS002 206 WARNBRO SOUND AVENUE WARNBRO CENTRE WARNBRO 6169 WA,1,3832928.0,SHOP 2 206 WARNBRO SOUND AV WARNBRO WA 6169,WARNBRO,6169.0,-32.346351623535200,115.7627182006840,0.45410628019323700
148,74 PRINCES HWY 1 DEVENEY ST PAKENHAM 3810 VIC,1,405375.0,74 PRINCES HWY PAKENHAM VIC 3810,PAKENHAM,3810.0,-38.071014404296900,145.4794921875,0.5128205128205130
149,PAD SITE 4 MORAYFIELD SUPER CENTRE 312 344 MORAYFIELD ROAD MORAYFIELD 4506 QLD,1,7299190.0,SHOP 4 312 344 MORAYFIELD RD MORAYFIELD QLD 4506,MORAYFIELD,4506.0,-27.117321014404300,152.952392578125,0.5974025974025970
150,1067 OXLEY HIGHWAY THRUMSTER 4222 NSW,1,15412244.0,GUZMAN Y GOMEZ 1067 OXLEY HWY THRUMSTER NSW 2444,THRUMSTER,2444.0,-31.463729858398400,152.8213348388670,0.3051948051948050
151,721 SEVENTEEN MILE ROCKS RD SINNAMON PARK JINDALEE 4073 QLD,1,12131537.0,721 SEVENTEEN MILE ROCKS RD SINNAMON PARK QLD 4073,SINNAMON PARK,4073.0,-27.536287307739300,152.94898986816400,0.9054054054054050
152,CNR BALLARAT ROAD BUTLER STREET PADSITE 330 BALLARAT ROAD BRAYBROOK 3019 VIC,1,12825166.0,UNIT 9 330 BALLARAT RD BRAYBROOK VIC 3019,BRAYBROOK,3019.0,-37.77924346923830,144.85076904296900,0.6153846153846150
153,LOT 5 131 QUEEN ST SOUTHPORT 4215 QLD,1,15425109.0,131 QUEEN ST SOUTHPORT QLD 4215,SOUTHPORT,4215.0,-27.97188377380370,153.4087371826170,0.5866666666666670
154,77 DALY STREET ASC ASCOT 6104 WA,1,2137634.0,77 DALY ST ASCOT WA 6104,ASCOT,6104.0,-31.941869735717800,115.9245376586910,0.8
155,2 4 BATHURST STREET ORANGE 2800 NSW,1,3955108.0,2 4 BATHURST ST COBAR NSW 2835,COBAR,2835.0,-31.485746383667000,145.82899475097700,0.3555555555555560
156,17 23 PUCKLE ST MOONEE PONDS 3039 VIC,1,2245018.0,17 23 PUCKLE ST MOONEE PONDS VIC 3039,MOONEE PONDS,3039.0,-37.767921447753900,144.923583984375,0.9636363636363640
157,CORNER MALAGA DRIVE BERINGARRA AVENUE MALAGA 6090 WA,0,,,,,,,
158,SHOP EXT04 LAKE HAVEN SHOPPING CENTRE GOOBARABAH AVENUE LAKE HAVEN 2263 NSW,1,14742879.0,LAKE HAVEN SHOPPING CENTRE 43 LAKE HAVEN DR LAKE HAVEN NSW 2263,LAKE HAVEN,2263.0,-33.241329193115200,151.5037078857420,0.3176470588235290
159,34 STUART HIGHWAY STUART PARK 820 NT,1,12308677.0,34 STUART HWY STUART PARK NT 0820,STUART PARK,820.0,-12.448832511901900,130.8415069580080,0.37755102040816300
160,PAD SITE 7 537 MULGRAVE RD EARLVILLE 4870 QLD,0,13848496.0,UNIT 7 537 ROSS RIVER RD CRANBROOK QLD 4814,CRANBROOK,4814.0,-19.310985565185500,146.74578857421900,0.25
161,357 SAMSONVALE RD WARNER 4500 QLD,1,5507989.0,357 SAMSONVALE RD WARNER QLD 4500,WARNER,4500.0,-27.29156494140630,152.95199584960900,0.98
162,8 LAVER DRIVE ROBINA ROBINA 4226 QLD,1,3586541.0,8 LAVER DR ROBINA QLD 4226,ROBINA,4226.0,-28.081588745117200,153.3818817138670,0.8863636363636360
163,2269 MELTON HIGHWAY MELTON 3337 VIC,1,2159609.0,2269 MELTON HWY MELTON VIC 3337,MELTON,3337.0,-37.68863296508790,144.6059112548830,0.7916666666666670
164,SHOPS 14 15 AND 16 MILTON VILLAGE 12 36 BAROONA ROAD MILTON 4064 QLD,0.5,2296207.0,SHOP 12 36 BAROONA RD MILTON QLD 4064,MILTON,4064.0,-27.468435287475600,153.0023956298830,0.33974358974359000
165,103 105 PRINCES HIGHWAY FAIRY MEADOW 2519 NSW,1,9225046.0,105 PRINCES HWY FAIRY MEADOW NSW 2519,FAIRY MEADOW,2519.0,-34.40027618408200,150.89138793945300,0.5454545454545450
166,30 LAKESIDE DR IDALIA 4811 QLD,1,8930707.0,2 30 LAKESIDE DR IDALIA QLD 4811,IDALIA,4811.0,-19.31557846069340,146.8169403076170,0.8936170212765960
167,403 407 ELIZABETH AVENUE KIPPA RING 4021 QLD,1,6590190.0,407 ELIZABETH AV KIPPA RING QLD 4021,KIPPA-RING,4021.0,-27.229848861694300,153.08566284179700,0.5454545454545450
168,223 225 MARRICKVILLE ROAD MARRICKVILLE 2204 NSW,1,1690195.0,223 225 MARRICKVILLE RD MARRICKVILLE NSW 2204,MARRICKVILLE,2204.0,-33.9106559753418,151.15711975097700,0.8653846153846150
169,239 GLENHUNTLY ROAD ELSTERNWICK 3185 VIC,0,,,,,,,
170,52 68 PRINCES HIGHWAY UNANDERRA 2526 NSW,1,13825126.0,56 68 PRINCES HWY UNANDERRA NSW 2526,UNANDERRA,2526.0,-34.45315170288090,150.8459930419920,0.5555555555555560
171,621 659 BELLARINE HIGHWAY LEOPOLD 3224 VIC,1,11699455.0,621 659 BELLARINE HWY LEOPOLD VIC 3224,LEOPOLD,3224.0,-38.186256408691400,144.45347595214800,0.8656716417910450
172,226 BRIDGE STREET TAMWORTH 2340 NSW,1,11912873.0,226 BRIDGE ST WEST TAMWORTH NSW 2340,WEST TAMWORTH,2340.0,-31.094989776611300,150.91444396972700,0.8448275862068970
173,CNR SHORE ST WEST AND WELLINGTON STREET CLEVELAND 4163 QLD,0,12950090.0,WELLINGTON STREET URBAN HABITAT 37 WELLINGTON ST CLEVELAND QLD 4163,CLEVELAND,4163.0,-27.52811050415040,153.2544403076170,0.6707317073170730
174,1881 CREEK RD CANNON HILL 4170 QLD,1,13136755.0,1881 CREEK RD CANNON HILL QLD 4170,CANNON HILL,4170.0,-27.472187042236300,153.09762573242200,0.98
175,122 124 PLUNKETT STREET NOWRA 2541 NSW,1,5956707.0,124 PLUNKETT ST NOWRA NSW 2541,NOWRA,2541.0,-34.8792724609375,150.6049346923830,0.5620915032679740
176,102 GREAT NORTH ROAD FIVE DOCK 2046 NSW,1,14230152.0,102 GREAT NORTH RD FIVE DOCK NSW 2046,FIVE DOCK,2046.0,-33.86807632446290,151.13011169433600,0.9016393442622950
177,2 LLOYDS LANE YATALA 4207 QLD,1,4396374.0,2 LLOYDS LANE YATALA QLD 4207,YATALA,4207.0,-27.736953735351600,153.22767639160200,0.9523809523809520
178,74 STATION ST FAIRFIELD 3078 VIC,1,5065649.0,74 STATION ST FAIRFIELD VIC 3078,FAIRFIELD,3078.0,-37.77874755859380,145.0179443359380,0.9591836734693880
179,1 SPITFIRE DRIVE DUBBO 2830 NSW,1,5595255.0,1 SPITFIRE DR DUBBO NSW 2830,DUBBO,2830.0,-32.25636291503910,148.61888122558600,0.86
180,331 RIPLEY RD RIPLEY 4306 QLD,1,8136381.0,SUNSHINE PARK 295 331 MONTEREA RD RIPLEY QLD 4306,RIPLEY,4306.0,-27.660709381103500,152.76979064941400,0.4520547945205480
181,215 CAMPBELL ROAD CANNING VALE 6155 WA,1,4880055.0,215 CAMPBELL RD CANNING VALE WA 6155,CANNING VALE,6155.0,-32.09304428100590,115.92463684082000,0.8909090909090910
182,417 BRIDGE STREET WILSONTON 4350 QLD,1,11860866.0,417 BRIDGE ST WILSONTON QLD 4350,WILSONTON,4350.0,-27.543216705322300,151.92333984375,0.8909090909090910
183,BUILDING 1 539 SOUTHPORT NERANG ROAD MOLENDINAR 4214 QLD,1,14365099.0,UNIT 1 397 SOUTHPORT NERANG RD MOLENDINAR QLD 4214,MOLENDINAR,4214.0,-27.981735229492200,153.3738250732420,0.5040650406504070
184,66 70 BRIGHTON ROAD GLENELG 5045 SA,1,2639397.0,66 70 BRIGHTON RD GLENELG EAST SA 5045,GLENELG EAST,5045.0,-34.985504150390600,138.5209503173830,0.8166666666666670
185,SHOP 14 178 CAMPBELL PARADE BONDI BEACH 2026 NSW,1,13988958.0,UNIT 14 178 CAMPBELL PDE BONDI BEACH NSW 2026,BONDI BEACH,2026.0,-33.889854431152300,151.27464294433600,0.76
186,306 ALICE STREET MARYBOROUGH 4650 QLD,1,14446145.0,306 ALICE ST MARYBOROUGH QLD 4650,MARYBOROUGH,4650.0,-25.539531707763700,152.6974639892580,0.9
187,110 ELIZABETH STREET TIGHES HILL 2297 NSW,1,13172998.0,110 ELIZABETH ST TIGHES HILL NSW 2297,TIGHES HILL,2297.0,-32.90579605102540,151.7586212158200,0.8983050847457630
188,78 SYDNEY ROAD BRUNSWICK 3056 VIC,1,13058584.0,74 78 SYDNEY RD BRUNSWICK VIC 3056,BRUNSWICK,3056.0,-37.77600860595700,144.96080017089800,0.7966101694915250
189,STOCKLAND VILLAGE 304 GILLIES STREET N WENDOUREE 3355 VIC,0,13930110.0,GILLIES STREET RETIREMENT VILLAGE 4 CHARLES ANDERSON GR LAKE GARDENS VIC 3355,LAKE GARDENS,3355.0,-37.54205322265630,143.821044921875,0.2552083333333330
190,11A MONTGOMERY STREET KOGARAH 2217 NSW,1,1151019.0,11A MONTGOMERY ST KOGARAH NSW 2217,KOGARAH,2217.0,-33.963504791259800,151.13340759277300,0.8909090909090910
191,180 220 SOMERTON ROAD ROXBURGH 3064 VIC,1,4760807.0,180 220 SOMERTON RD ROXBURGH PARK VIC 3064,ROXBURGH PARK,3064.0,-37.64048385620120,144.93173217773400,0.8260869565217390
192,10 12 ANZAC ROAD TUGGERAH 2259 NSW,1,9681706.0,10 12 ANZAC RD TUGGERAH NSW 2259,TUGGERAH,2259.0,-33.307559967041000,151.41807556152300,0.8727272727272730
193,93 FITZROY ST ROCKHAMPTON 4700 QLD,1,9703192.0,93 FITZROY ST GRAFTON NSW 2460,GRAFTON,2460.0,-29.691940307617200,152.93389892578100,0.21232876712328800
194,115 RIVER ROAD GYMPIE 4570 QLD,1,7036253.0,115 RIVER RD GYMPIE QLD 4570,GYMPIE,4570.0,-26.199905395507800,152.66664123535200,0.8541666666666670